{"type":"FeatureCollection","features":[{"type":"Feature","geometry":{"type":"Point","coordinates":[103.81540929966516,1.3159575802288401]},"properties":{"heritage_id":"HT 2015-246","common_name":"Chengal Pasir","scientific_name":"Hopea odorata Roxb.","location_description":"Singapore Botanic Gardens, Lawn XA","hyperlink":"https://heritagetrees.nparks.gov.sg/ht-2015-246/","source_objectid":16324,"source_updated":"20250818152419","point_source":"NParks Heritage Trees","proxy_note":"Official heritage tree point; not a complete all-trees/street-trees inventory.","story_role":"Selected close-up tree for Chapter 5"}}]}